API VERSION: 1.2
API SOURCE: NASA/JPL Horizons API



*******************************************************************************
Ephemeris / API_USER Fri Apr  3 11:28:47 2026 Pasadena, USA      / Horizons
*******************************************************************************
Target body name: Uranus (799)                    {source: ura184_merged}
Center body name: Sun (10)                        {source: DE441}
Center-site name: BODY CENTER
*******************************************************************************
Start time      : A.D. 2052-Sep-21 13:03:00.0000 TDB
Stop  time      : A.D. 2052-Sep-23 13:03:00.0000 TDB
Step-size       : 60 minutes
*******************************************************************************
Center geodetic : 0.0, 0.0, 0.0                   {E-lon(deg),Lat(deg),Alt(km)}
Center cylindric: 0.0, 0.0, 0.0                   {E-lon(deg),Dxy(km),Dz(km)}
Center radii    : 695700.0, 695700.0, 695700.0 km {Equator_a, b, pole_c}
Output units    : AU-D
Calendar mode   : Mixed Julian/Gregorian
Output type     : GEOMETRIC cartesian states
Output format   : 3 (position, velocity, LT, range, range-rate)
Reference frame : Ecliptic of J2000.0
*******************************************************************************
            JDTDB,            Calendar Date (TDB),                      X,                      Y,                      Z,                     VX,                     VY,                     VZ,                     LT,                     RG,                     RR,
**************************************************************************************************************************************************************************************************************************************************************************
$$SOE
2470802.043750000, A.D. 2052-Sep-21 13:03:00.0000, -1.829200173430496E+01,  4.125681354381711E-03,  2.368454063991207E-01, -2.824885818424647E-05, -4.123125076593945E-03, -1.491120980573138E-05,  1.056546494890504E-01,  1.829353547610726E+01,  2.712356021884339E-05,
2470802.085416667, A.D. 2052-Sep-21 14:03:00.0000, -1.829200291058553E+01,  3.953884486444838E-03,  2.368447851204216E-01, -2.821258434182094E-05, -4.123124584251320E-03, -1.491011941225442E-05,  1.056546560165424E-01,  1.829353660630745E+01,  2.712602506652357E-05,
2470802.127083333, A.D. 2052-Sep-21 15:03:00.0000, -1.829200408535119E+01,  3.782087638926244E-03,  2.368441638930376E-01, -2.817613299608829E-05, -4.123124099337595E-03, -1.490875105277241E-05,  1.056546625446078E-01,  1.829353773660693E+01,  2.712831600161811E-05,
2470802.168750000, A.D. 2052-Sep-21 16:03:00.0000, -1.829200525859326E+01,  3.610290811134476E-03,  2.368435427278917E-01, -2.813943977963851E-05, -4.123123640874928E-03, -1.490713908056394E-05,  1.056546690731971E-01,  1.829353886699714E+01,  2.713036821392690E-05,
2470802.210416667, A.D. 2052-Sep-21 17:03:00.0000, -1.829200643030015E+01,  3.438494001503770E-03,  2.368429216341347E-01, -2.810243240957492E-05, -4.123123231659106E-03, -1.490533411683690E-05,  1.056546756022444E-01,  1.829353999746662E+01,  2.713210876801703E-05,
2470802.252083333, A.D. 2052-Sep-21 18:03:00.0000, -1.829200760045722E+01,  3.266697207465406E-03,  2.368423006185039E-01, -2.806503649364466E-05, -4.123122896626669E-03, -1.490340060569244E-05,  1.056546821316654E-01,  1.829354112800083E+01,  2.713346244102295E-05,
2470802.293750000, A.D. 2052-Sep-21 19:03:00.0000, -1.829200876904687E+01,  3.094900425424390E-03,  2.368416796848865E-01, -2.802718663251140E-05, -4.123122659306810E-03, -1.490140904718931E-05,  1.056546886613588E-01,  1.829354225858219E+01,  2.713436292525392E-05,
2470802.335416667, A.D. 2052-Sep-21 20:03:00.0000, -1.829200993604925E+01,  2.923103650939247E-03,  2.368410588343645E-01, -2.798884513081946E-05, -4.123122535445693E-03, -1.489942005151696E-05,  1.056546951912100E-01,  1.829354338919088E+01,  2.713477174504891E-05,
2470802.377083333, A.D. 2052-Sep-21 21:03:00.0000, -1.829201110144403E+01,  2.751306879246518E-03,  2.368404380661597E-01, -2.795003130542406E-05, -4.123122522610385E-03, -1.489745641615509E-05,  1.056547017211015E-01,  1.829354451980655E+01,  2.713470792513568E-05,
2470802.418750000, A.D. 2052-Sep-21 22:03:00.0000, -1.829201226521356E+01,  2.579510106328049E-03,  2.368398173800744E-01, -2.791086519736244E-05, -4.123122584237928E-03, -1.489545826983916E-05,  1.056547082509316E-01,  1.829354565041158E+01,  2.713429228081959E-05,
2470802.460416667, A.D. 2052-Sep-21 23:03:00.0000, -1.829201342734839E+01,  2.407713330791954E-03,  2.368391967812625E-01, -2.787163047677993E-05, -4.123122626182298E-03, -1.489321491580349E-05,  1.056547147806458E-01,  1.829354678099655E+01,  2.713381120107821E-05,
2470802.502083333, A.D. 2052-Sep-22 00:03:00.0000, -1.829201458785577E+01,  2.235916556927071E-03,  2.368385762884198E-01, -2.783288090058422E-05, -4.123122464801906E-03, -1.489030704704039E-05,  1.056547213102876E-01,  1.829354791156897E+01,  2.713382384588292E-05,
2470802.543750000, A.D. 2052-Sep-22 01:03:00.0000, -1.829201574675162E+01,  2.064119789683151E-03,  2.368379559102299E-01, -2.779379313655350E-05, -4.123122448371949E-03, -1.488793570331517E-05,  1.056547278399494E-01,  1.829354904214487E+01,  2.713349135652075E-05,
2470802.585416667, A.D. 2052-Sep-22 02:03:00.0000, -1.829201690398512E+01,  1.892323014226543E-03,  2.368373356207862E-01, -2.775324260570078E-05, -4.123122820361013E-03, -1.488602259997079E-05,  1.056547343693358E-01,  1.829355017267309E+01,  2.713169024409948E-05,
2470802.627083333, A.D. 2052-Sep-22 03:03:00.0000, -1.829201805951157E+01,  1.720526218424107E-03,  2.368367154035303E-01, -2.771194153824291E-05, -4.123123403588508E-03, -1.488445835738623E-05,  1.056547408981875E-01,  1.829355130310872E+01,  2.712913412562682E-05,
2470802.668750000, A.D. 2052-Sep-22 04:03:00.0000, -1.829201921330852E+01,  1.548729395643461E-03,  2.368360952450735E-01, -2.767026943976607E-05, -4.123124104972425E-03, -1.488319674869009E-05,  1.056547474263739E-01,  1.829355243342915E+01,  2.712620308873620E-05,
2470802.710416667, A.D. 2052-Sep-22 05:03:00.0000, -1.829202036536470E+01,  1.376932541948281E-03,  2.368354751329702E-01, -2.762840241198844E-05, -4.123124883756717E-03, -1.488223593454930E-05,  1.056547539538288E-01,  1.829355356362294E+01,  2.712307325153491E-05,
2470802.752083333, A.D. 2052-Sep-22 06:03:00.0000, -1.829202151567356E+01,  1.205135654410510E-03,  2.368348550541956E-01, -2.758640251883869E-05, -4.123125729250990E-03, -1.488160328173685E-05,  1.056547604805136E-01,  1.829355469368337E+01,  2.711980632204809E-05,
2470802.793750000, A.D. 2052-Sep-22 07:03:00.0000, -1.829202266422984E+01,  1.033338730193335E-03,  2.368342349941907E-01, -2.754427724077270E-05, -4.123126645751814E-03, -1.488134331311997E-05,  1.056547670063967E-01,  1.829355582360500E+01,  2.711640920603120E-05,
2470802.835416667, A.D. 2052-Sep-22 08:03:00.0000, -1.829202381102812E+01,  8.615417661455545E-04,  2.368336149363502E-01, -2.750201698351850E-05, -4.123127642786291E-03, -1.488150835612316E-05,  1.056547735314455E-01,  1.829355695338219E+01,  2.711287163489676E-05,
2470802.877083333, A.D. 2052-Sep-22 09:03:00.0000, -1.829202495606264E+01,  6.897447587177568E-04,  2.368329948618522E-01, -2.745961688184243E-05, -4.123128729211708E-03, -1.488215148383492E-05,  1.056547800556255E-01,  1.829355808300893E+01,  2.710918805952780E-05,
2470802.918750000, A.D. 2052-Sep-22 10:03:00.0000, -1.829202609932773E+01,  5.179477040644342E-04,  2.368323747497400E-01, -2.741708771689010E-05, -4.123129910030929E-03, -1.488332137522809E-05,  1.056547865789023E-01,  1.829355921247930E+01,  2.710536863328033E-05,
2470802.960416667, A.D. 2052-Sep-22 11:03:00.0000, -1.829202724081857E+01,  3.461505982376441E-04,  2.368317545771843E-01, -2.737445960457953E-05, -4.123131185050454E-03, -1.488505875645437E-05,  1.056547931012464E-01,  1.829356034178817E+01,  2.710144294593892E-05,
2470803.002083333, A.D. 2052-Sep-22 12:03:00.0000, -1.829202838053199E+01,  1.743534374099948E-04,  2.368311343198662E-01, -2.733178117442339E-05, -4.123132548725448E-03, -1.488739412217264E-05,  1.056547996226376E-01,  1.829356147093207E+01,  2.709745923181341E-05,
2470803.043750000, A.D. 2052-Sep-22 13:03:00.0000, -1.829202951846718E+01,  2.556218087744261E-06,  2.368305139524327E-01, -2.728911620928904E-05, -4.123133990710658E-03, -1.489034647295112E-05,  1.056548061430695E-01,  1.829356259990984E+01,  2.709348102582462E-05,
2470803.085416667, A.D. 2052-Sep-22 14:03:00.0000, -1.829203065462622E+01, -1.692410627071908E-04,  2.368298934489877E-01, -2.724653912712739E-05, -4.123135496774656E-03, -1.489392284097350E-05,  1.056548126625521E-01,  1.829356372872325E+01,  2.708958265149184E-05,
2470803.127083333, A.D. 2052-Sep-22 15:03:00.0000, -1.829203178901444E+01, -3.410384072971486E-04,  2.368292727835906E-01, -2.720413022934840E-05, -4.123137049843001E-03, -1.489811841065075E-05,  1.056548191811141E-01,  1.829356485737728E+01,  2.708584446794785E-05,
2470803.168750000, A.D. 2052-Sep-22 16:03:00.0000, -1.829203292164055E+01, -5.128358172515795E-04,  2.368286519307390E-01, -2.716197129429325E-05, -4.123138631018808E-03, -1.490291707276009E-05,  1.056548256988041E-01,  1.829356598588032E+01,  2.708234845647724E-05,
2470803.210416667, A.D. 2052-Sep-22 17:03:00.0000, -1.829203405251663E+01, -6.846332933306799E-04,  2.368280308658226E-01, -2.712014183813124E-05, -4.123140220491349E-03, -1.490829227992958E-05,  1.056548322156900E-01,  1.829356711424413E+01,  2.707917447058478E-05,
2470803.252083333, A.D. 2052-Sep-22 18:03:00.0000, -1.829203518165798E+01, -8.564308354634917E-04,  2.368274095655368E-01, -2.707871618217509E-05, -4.123141798288450E-03, -1.491420809745584E-05,  1.056548387318583E-01,  1.829356824248372E+01,  2.707639728993782E-05,
